[{"OBJECT_NAME":"OBJECT C","OBJECT_ID":"2025-313C","EPOCH":"2026-03-09T21:13:39.359712","MEAN_MOTION":14.86307196,"ECCENTRICITY":0.01562422,"INCLINATION":97.6236,"RA_OF_ASC_NODE":143.4861,"ARG_OF_PERICENTER":305.4656,"MEAN_ANOMALY":53.2062,"EPHEMERIS_TYPE":0,"CLASSIFICATION_TYPE":"U","NORAD_CAT_ID":67250,"ELEMENT_SET_NO":999,"REV_AT_EPOCH":1059,"BSTAR":0.0010268788,"MEAN_MOTION_DOT":0.00011246,"MEAN_MOTION_DDOT":0},{"OBJECT_NAME":"SL-3 R\/B","OBJECT_ID":"1982-079B","EPOCH":"2026-03-09T22:18:18.158976","MEAN_MOTION":15.24805533,"ECCENTRICITY":0.00250364,"INCLINATION":81.1481,"RA_OF_ASC_NODE":192.7939,"ARG_OF_PERICENTER":164.0597,"MEAN_ANOMALY":196.143,"EPHEMERIS_TYPE":0,"CLASSIFICATION_TYPE":"U","NORAD_CAT_ID":13403,"ELEMENT_SET_NO":999,"REV_AT_EPOCH":37773,"BSTAR":0.00032485557,"MEAN_MOTION_DOT":8.157e-5,"MEAN_MOTION_DDOT":0}]
